[
    {
        "City": " Hyderabad",
        "Retailer Locality Area": "teststore",
        "Full Postal Address ": "No 8 & 9, 1St Floor, Aphb Commercial Complex, Tabla Building Opp Klm, Opp Sivaparvathi Theatre, Main Road, Kphb, Hyderabad.",
        "Mobile Number": "9347980470",
        "State": "TG",
        "Pincode": "500072"
    },
    {
        "City": " Hyderabad",
        "Retailer Locality Area": "Kphb",
        "Full Postal Address ": "No 8 & 9, 1St Floor, Aphb Commercial Complex, Tabla Building Opp Klm, Opp Sivaparvathi Theatre, Main Road, Kphb, Hyderabad.",
        "Mobile Number": "9100930666",
        "State": "TG",
        "Pincode": "500072"
    },
    {
        "City": " Hyderabad",
        "Retailer Locality Area": "Uppal",
        "Full Postal Address ": "Door No: 2-1-90, Opp Mahankali Mandhir, Main Road, Uppal, Hyderabad",
        "Mobile Number": "9100908666",
        "State": "TG",
        "Pincode": "500039"
    },
    {
        "City": " Hyderabad",
        "Retailer Locality Area": "Ramanthapur",
        "Full Postal Address ": "Door No: 2-2-56/A, Muthoot Finance Building, Vishal Meega Mart, Ramanthapur , Hyderabad",
        "Mobile Number": "9100812666",
        "State": "TG",
        "Pincode": "500013"
    },
    {
        "City": " Hyderabad",
        "Retailer Locality Area": "Hydernagar",
        "Full Postal Address ": "Plot No: 21/Mig, Near Axis Bank, Near Metro Station, Dharmareddy Colony, Hydernagar, Hydernagar, ",
        "Mobile Number": "9100813666",
        "State": "TG",
        "Pincode": "500085"
    },
    {
        "City": " Hyderabad",
        "Retailer Locality Area": "Himayatnagar",
        "Full Postal Address ": "3-6-563/1/A, Liberty Road, Near Max Fashion, Mc.Donalds, Upper Ground Floor, Himayatnagar, ",
        "Mobile Number": "9100814666",
        "State": "TG",
        "Pincode": "500029"
    },
    {
        "City": " Hyderabad",
        "Retailer Locality Area": "Malkajgiri",
        "Full Postal Address ": "Door No: 2-130, Beside Shah Electronics, Hanuman Temple Opp, Near Central Bank, Vani Nagar, Malkajgiri, ",
        "Mobile Number": "9100823666",
        "State": "TG",
        "Pincode": "500047"
    },
    {
        "City": " Hyderabad",
        "Retailer Locality Area": "Greenlands",
        "Full Postal Address ": "No:8, Beside Lal Banglaw, Opp Greenpark Hotel,Oppo Dr.Reddy’S Hospital, Greenlands",
        "Mobile Number": "9100824666",
        "State": "TG",
        "Pincode": "500016"
    },
    {
        "City": " Hyderabad",
        "Retailer Locality Area": "Chandanagar",
        "Full Postal Address ": "4-92, Block No-4, Inside Gramakantam, Opp Swagath Grand, Chandanagar.",
        "Mobile Number": "9100825666",
        "State": "TG",
        "Pincode": "500050"
    },
    {
        "City": " Hyderabad",
        "Retailer Locality Area": "Chaitanyapuri",
        "Full Postal Address ": "G-1, 13-18-97/5/Nr, Ground Floor, Opp Grean Leaves, Near Busstop, Opp Biba,Rajanigandha Appartments, Kamalanagar Colony, Gaddiannaram Village, Chaitanyapuri",
        "Mobile Number": "9573823666",
        "State": "TG",
        "Pincode": "500060"
    },
    {
        "City": " Hyderabad",
        "Retailer Locality Area": "Vanastalipuram",
        "Full Postal Address ": "Shop No-1, H. No-436, Opp Red Water Tank, Govt Hospital, Lig Phase-Ii, Vanastalipuram, ",
        "Mobile Number": "9573865666",
        "State": "TG",
        "Pincode": "500070"
    },
    {
        "City": " Hyderabad",
        "Retailer Locality Area": "Karkhana",
        "Full Postal Address ": "Shop No-25, Beside Mahankali Mandhir, Kharkhana Road, Secunderabad",
        "Mobile Number": "9573887666",
        "State": "TG",
        "Pincode": "500009"
    },
    {
        "City": " Hyderabad",
        "Retailer Locality Area": "Rtc X Road",
        "Full Postal Address ": "D.No.1-1-115 & 116, Beside Crystal Hotel, Rtc X Roads, ",
        "Mobile Number": "9573911666",
        "State": "TG",
        "Pincode": "500020"
    },
    {
        "City": " Hyderabad",
        "Retailer Locality Area": "Boduppal",
        "Full Postal Address ": "Shop No -9-14/3,Beside Reliance Digital, Opp.Oriental Bank Of Commerce, ",
        "Mobile Number": "9573899666",
        "State": "TG",
        "Pincode": "500039"
    },
    {
        "City": " Hyderabad",
        "Retailer Locality Area": "A S Rao Nagar",
        "Full Postal Address ": "Plot No-1, Door No-1-1-272/1/Nr, Beside Axis Bank, A S Rao Nagar, Secunderabad",
        "Mobile Number": "7702488666",
        "State": "TG",
        "Pincode": "500062"
    },
    {
        "City": " Hyderabad",
        "Retailer Locality Area": "Langarhouse",
        "Full Postal Address ": "13-6-798/1/21, Beside Bapughat, Langarhouse, Hyderabad",
        "Mobile Number": "9573867666",
        "State": "TG",
        "Pincode": "500008"
    },
    {
        "City": " Hyderabad",
        "Retailer Locality Area": "Neredmet-2",
        "Full Postal Address ": "Plot No -7, Opp Sbi Bank, Sbi Defence Colony, Saptagiri Colony Sainikpuri, Neredmet X Road, ",
        "Mobile Number": "7702511666",
        "State": "TG",
        "Pincode": "500056"
    },
    {
        "City": " Hyderabad",
        "Retailer Locality Area": "Madhapur",
        "Full Postal Address ": "Door No: 2-38/A, Ground Floor,Kavuri Hills Phase 1 Pillar No.27, South India Ank Building,  Hitech City Road, Madhapur",
        "Mobile Number": "7702399666",
        "State": "TG",
        "Pincode": "500081"
    },
    {
        "City": " Hyderabad",
        "Retailer Locality Area": "Attapur",
        "Full Postal Address ": "Pillar No-118, Shop No-4-3-144/6,Ground & 1St Floor,  Beside Asian Threatre,  Attapur, Hyderabad, ",
        "Mobile Number": "7893587666",
        "State": "TG",
        "Pincode": "500048"
    },
    {
        "City": " Hyderabad",
        "Retailer Locality Area": "Shamshabad",
        "Full Postal Address ": "Shop No-11-132 & 131, Opp Bus Stop, Beside Appolo Pharmacy, Shamshabad, ",
        "Mobile Number": "7702455666",
        "State": "TG",
        "Pincode": "500038"
    },
    {
        "City": " Hyderabad",
        "Retailer Locality Area": "Ameerpet",
        "Full Postal Address ": "D-No.8-3-948-949, Yellareddy Guda, Beside Bata Showroom,  Opp Klm Shopping Mall, Ameerpet",
        "Mobile Number": "9100780666",
        "State": "TG",
        "Pincode": " 500016"
    },
    {
        "City": " Hyderabad",
        "Retailer Locality Area": "Banjara Hills",
        "Full Postal Address ": "Ghmc No-8-2-630 To 636/2& 3, Ground Floor And Mezzanine Floor, M/S. R.M.K Plaza, Road No 1 & 12 Junction, Banjara Hills, ",
        "Mobile Number": "7702388666",
        "State": "TG",
        "Pincode": "500034"
    },
    {
        "City": " Hyderabad",
        "Retailer Locality Area": "Chintal",
        "Full Postal Address ": "Plot No-1, Survey No -185, Prabhav Akred, Ranga Nagar, Chintal, Kutbullapur",
        "Mobile Number": "7893722666",
        "State": "TG",
        "Pincode": "500055"
    },
    {
        "City": " Hyderabad",
        "Retailer Locality Area": "Dilsukhnagar",
        "Full Postal Address ": "Sh No :16-11/740/4/A/B, Gaddianaram, Opp Vijaya Diagnostic Center, ",
        "Mobile Number": "7993157666",
        "State": "TG",
        "Pincode": "500060"
    },
    {
        "City": " Hyderabad",
        "Retailer Locality Area": "Santoshnagar",
        "Full Postal Address ": "Sh No: 9-7-218, Maruti Nagar, Beside Dr. Agarwal Eye Hospital, Santoshnagar ",
        "Mobile Number": "7993139666",
        "State": "TG",
        "Pincode": "500060"
    },
    {
        "City": " Hyderabad",
        "Retailer Locality Area": "Ecil",
        "Full Postal Address ": "1-7-214/2, Kamala Nagar Road, Ecil X Road, Ecil",
        "Mobile Number": "9121861666",
        "State": "TG",
        "Pincode": "500062"
    },
    {
        "City": " Hyderabad",
        "Retailer Locality Area": "Kondapur",
        "Full Postal Address ": "2Nd Floor, 134-135, Sharath Capital City Mall, Kondapur Vilage, Serilingampally Mandal, R.R.District,",
        "Mobile Number": "9121853666",
        "State": "TG",
        "Pincode": "500084"
    },
    {
        "City": " Hyderabad",
        "Retailer Locality Area": "Saroornagar",
        "Full Postal Address ": "Bsnl Building, Opp. Pillar No A1586, Beside Fruit Market, Saroornagar",
        "Mobile Number": "7993913666",
        "State": "TG",
        "Pincode": "500060"
    },
    {
        "City": "Adilabad",
        "Retailer Locality Area": "Adilabad",
        "Full Postal Address ": "Door No-4-2-198/13/1/13, Vp Complex, Mochigalli, Netaji Chowk, Adilabad, Opp Central District Library, ",
        "Mobile Number": "7893712666",
        "State": "TG",
        "Pincode": "504001"
    },
    {
        "City": "Anantapur",
        "Retailer Locality Area": "Tadipatri",
        "Full Postal Address ": "D.No:13/208, Opp Jcnrm Complex, C.B Road, Tadipatri, Ananthapur ",
        "Mobile Number": "9121864666",
        "State": "AP",
        "Pincode": "515591"
    },
    {
        "City": "Anantapur",
        "Retailer Locality Area": "Kadiri",
        "Full Postal Address ": "Sh.N-17771, Bypass Road, Opp Girls High School, Upstair Axis Bank, Kadiri,",
        "Mobile Number": "7993158666",
        "State": "AP",
        "Pincode": "515671"
    },
    {
        "City": "Anantapur",
        "Retailer Locality Area": "Dharmavaram",
        "Full Postal Address ": "Door No: 13/536,537, Indira Nagar,Opp Icic Bank, R.S Road, Dharmavaram,",
        "Mobile Number": "7702377666",
        "State": "AP",
        "Pincode": "515671"
    },
    {
        "City": "Anantapur",
        "Retailer Locality Area": "Anantapur",
        "Full Postal Address ": "Door No: 10/380,18/381, Subash Road, Opp Reliance Trendz, Anantapur",
        "Mobile Number": "9100797666",
        "State": "AP",
        "Pincode": "515001"
    },
    {
        "City": "Bhimavaram",
        "Retailer Locality Area": "Bhimavaram",
        "Full Postal Address ": "Door No-16-2-189 To 191, Ward # 7, Sy No.404/10,Prabha Complex, Pp Road, Annapurna Threatre,  Bhimavaram Town, Weast Godhavari,",
        "Mobile Number": "7893655666",
        "State": "AP",
        "Pincode": "534201"
    },
    {
        "City": "Godavarikhani",
        "Retailer Locality Area": "Godavarikhani",
        "Full Postal Address ": "Door No: 18-5-193, 1St Floor Lakshmi Nagar, Opp Sbi Bank, Godavarikhani  ",
        "Mobile Number": "7893622666",
        "State": "TG",
        "Pincode": "505209"
    },
    {
        "City": "Guntur",
        "Retailer Locality Area": "Guntur",
        "Full Postal Address ": "Door No-5/37/43/1, Roshan Complex Brodipet 4Th Lane 2Nd Cross  Opp Sindhuri Hotel, Guntur ",
        "Mobile Number": "7993155666",
        "State": "AP",
        "Pincode": "522002"
    },
    {
        "City": "Guntur",
        "Retailer Locality Area": "Naaz Center - Guntur",
        "Full Postal Address ": "Sh.No: 9-10-1, Station Road, Naaz Building, Naaz Center, Guntur, Andhra Pradesh",
        "Mobile Number": "7993153666",
        "State": "AP",
        "Pincode": "522001"
    },
    {
        "City": "Karimnagar",
        "Retailer Locality Area": "Karimnagar",
        "Full Postal Address ": "Door No: 2-10-17, Geetha Bhavan Road, Near Ii Town Police Station",
        "Mobile Number": "9100798666",
        "State": "TG",
        "Pincode": " 505001"
    },
    {
        "City": "Khammam",
        "Retailer Locality Area": "Khammam",
        "Full Postal Address ": "Sh No: 8-1-152 & 8-1-153, Opposite Bus Stop, Municipal Office Road",
        "Mobile Number": "9100783666",
        "State": "TG",
        "Pincode": "507001"
    },
    {
        "City": "Kurnool",
        "Retailer Locality Area": "Kurnool",
        "Full Postal Address ": "D.No-40/354/1,1A,1B, Pedha Park Road, Opp Malabar Gold, Kurnool",
        "Mobile Number": "9573933666",
        "State": "AP",
        "Pincode": "518001"
    },
    {
        "City": "Kurnool",
        "Retailer Locality Area": "Nandyal Road - Kurnool",
        "Full Postal Address ": "D.No: 87/986 – 1I & 87/986 – 2F,Nandyal Road, Viswanath Plaza, Kurnool ",
        "Mobile Number": "7702745666",
        "State": "AP",
        "Pincode": "518001"
    },
    {
        "City": "Mahbubnagar",
        "Retailer Locality Area": "Mahbubnagar",
        "Full Postal Address ": "D.No.2-2-1/5, Shah Gouse Plaza,Vineela Coffee Centre, Near New Bus Stop, Opp Collector’S Office",
        "Mobile Number": "9618898666",
        "State": "TG",
        "Pincode": "509001"
    },
    {
        "City": "Nalgonda",
        "Retailer Locality Area": "Nalgonda",
        "Full Postal Address ": "No-6-2-654 & 655 (Old H-No-6-2-19/21/1), Ground Floor & 1St Floor, Yelishala Colony",
        "Mobile Number": "7893567666",
        "State": "TG",
        "Pincode": "508001"
    },
    {
        "City": "Nizamabad",
        "Retailer Locality Area": "Nizamabad",
        "Full Postal Address ": "Shop No- 47 & 48, New Muncipal Complex , Station Road",
        "Mobile Number": "7893633666",
        "State": "TG",
        "Pincode": "503001"
    },
    {
        "City": "Ongole",
        "Retailer Locality Area": "Ongole",
        "Full Postal Address ": "Opp: Rtc Depot, Hotel Y Palace Premises, Kurnool Road, ",
        "Mobile Number": "7993411666",
        "State": "AP",
        "Pincode": "523002"
    },
    {
        "City": "Rajamundary",
        "Retailer Locality Area": "Rajamundary",
        "Full Postal Address ": "Door No: 30-1-29, Kumarshetty Kutter, Manipuram Gold, J.P. Road, Rajamundry",
        "Mobile Number": "7702788666",
        "State": "AP",
        "Pincode": "533101"
    },
    {
        "City": "Sangareddy",
        "Retailer Locality Area": "Sangareddy",
        "Full Postal Address ": "Door No-5-2-19/5, Opp Raithu Bazar, Near Bus Stand",
        "Mobile Number": "7893543666",
        "State": "TG",
        "Pincode": "502001"
    },
    {
        "City": "Siddipet",
        "Retailer Locality Area": "Siddipet",
        "Full Postal Address ": "Sh.No: 11-1-150/A,Medak Road, Beside Andhra Bank, Siddipe",
        "Mobile Number": "7993140666",
        "State": "TG",
        "Pincode": "502103"
    },
    {
        "City": "Srikakulam",
        "Retailer Locality Area": "Srikakulam",
        "Full Postal Address ": "Shop Bearing No: 8/67/68, Gt Road, Opp. State Bank Main Branch, Srikakulam, ",
        "Mobile Number": "7702699666",
        "State": "AP",
        "Pincode": "532001"
    },
    {
        "City": "Suryapet",
        "Retailer Locality Area": "Suryapet",
        "Full Postal Address ": "Sh.No: 1-2-270/46/4 & 1-2-270/46/5, M.G. Road, Opp: Yes Bank",
        "Mobile Number": "9100921666",
        "State": "TG",
        "Pincode": "508213"
    },
    {
        "City": "Tadepalligudem",
        "Retailer Locality Area": "Tadepalligudem",
        "Full Postal Address ": "Sh.No: 3-1-13/2 K.N. Road, Nandhiboma Center, Tadepalligudem -1, West Godavari District, ",
        "Mobile Number": "7993149666",
        "State": "AP",
        "Pincode": "534101"
    },
    {
        "City": "Tenali",
        "Retailer Locality Area": "Tenali",
        "Full Postal Address ": "16, Mdr83, Bose Rd, Kothapet, Ramalingeswara Pet, Tenali, Andhra Pradesh ",
        "Mobile Number": "7702987666",
        "State": "AP",
        "Pincode": "522201"
    },
    {
        "City": "Vijayawada",
        "Retailer Locality Area": "P&T Colony, Mg Road - Vijayawada",
        "Full Postal Address ": "Plot No: 40-1-51, Israeloet, Opp-P&T Colony, Mgroad, Vijaywada – 520010O Pp To Bsnl / Sbi Bank.",
        "Mobile Number": "9121867666",
        "State": "AP",
        "Pincode": "520010"
    },
    {
        "City": "Vijayawada",
        "Retailer Locality Area": "Masjid Street - Vijayawada",
        "Full Postal Address ": "Ward No – 9, Block No – 12, Door No – 22-11-2&3, 28-10-27 & 28-10-10/1 To 6, Masjid Street,Arandal Pet, Vijayawada",
        "Mobile Number": "7993907666",
        "State": "AP",
        "Pincode": "520002"
    },
    {
        "City": "Vijayawada",
        "Retailer Locality Area": "Eluru Road, Governerpet - Vijayawada",
        "Full Postal Address ": "Door No – 29-37-149, Ward No – 24, Block No – 9 Eluru Road, Governerpet, Vijayawada",
        "Mobile Number": "7993908666",
        "State": "AP",
        "Pincode": "520002"
    },
    {
        "City": "Vijayawada",
        "Retailer Locality Area": "Patamata - Vijayawada",
        "Full Postal Address ": "D.No 73-2-1, Oppo Kotak Mahindra Bank, Patamata, Vijayawada,",
        "Mobile Number": "7993909666",
        "State": "AP",
        "Pincode": "520010"
    },
    {
        "City": "Visakhapatnam",
        "Retailer Locality Area": "Gajuwaka",
        "Full Postal Address ": "D.No.9-7-256/4, High School Rd, New Gajuwaka Main Rd, Opp: Mohini Cinema Hall, Gajuwaka, Visakhapatnam",
        "Mobile Number": "77027 67666",
        "State": "AP",
        "Pincode": "530026"
    },
    {
        "City": "Visakhapatnam",
        "Retailer Locality Area": "Gopalapatnam(Nad Junction)",
        "Full Postal Address ": "58-1-332, Sh 39, Nad Junction, Buchirajupalem, Dungalavanipalem, Visakhapatnam, Andhra Pradesh",
        "Mobile Number": "79931 48666",
        "State": "AP",
        "Pincode": "530027"
    },
    {
        "City": "Visakhapatnam",
        "Retailer Locality Area": "Daba Gardens",
        "Full Postal Address ": "Opp. Sri Vamsi Shopping Mall, Main Rd, Beside Postal Office, Daba Gardens, 104 Area, Visakhapatnam, Andhra Pradesh ",
        "Mobile Number": "79931 41666",
        "State": "AP",
        "Pincode": "530020"
    },
    {
        "City": "Warangal",
        "Retailer Locality Area": "Warangal",
        "Full Postal Address ": "1St & 2Nd Floor (Entire Building) Shop No-9-10-13, Opp Sbi Main Branch, Jpn Road",
        "Mobile Number": "7702943666",
        "State": "TG",
        "Pincode": "506002"
    },
    {
        "City": "Warangal",
        "Retailer Locality Area": "Hanumakonda",
        "Full Postal Address ": "D-No-5-9-167/1, Sikhwadi, Kishanpura, Nayeem Nagar Road",
        "Mobile Number": "7702934666",
        "State": "TG",
        "Pincode": "506001"
    },
    {
        "City": "Warangal",
        "Retailer Locality Area": "Hanumakonda – 2",
        "Full Postal Address ": "Sh.No: 3-3-33/34, Beside Mahendra Showroom, Hanumakonda",
        "Mobile Number": "7993142666",
        "State": "TG",
        "Pincode": "506001"
    },
    {
        "City": "Warangal",
        "Retailer Locality Area": "Narsampet",
        "Full Postal Address ": "Ward No:9, H.No:9-74/1-C, Main Road, Narsampet",
        "Mobile Number": "9100952666",
        "State": "TG",
        "Pincode": "506132"
    }
]